XRISM                   
1 57800U 23137A   24047.41707402  .00008308  00000+0  65184-3 0  9993
2 57800  31.0041  66.7613 0009804  84.1726 276.0027 14.99628312 24307
